STARLINK-1716
1 46672U 20073C   26092.83335647  .00247765  00000+0  19883-2 0  9996
2 46672  53.0420  82.2957 0008974  57.8292 200.7018 15.69681701  5675
STARLINK-1655
1 47623U 21012D   26092.83335647  .00217608  00000+0  17514-2 0  9999
2 47623  53.0396 207.2084 0009184 358.8222  93.0073 15.69703130  5940
